[
   {
      "name": "STARLINK-1984",
      "line1": "1 47581U 21009AK  21092.91668981  .00020458  00000-0  22893-3 0  9995",
      "line2": "2 47581  53.0520 201.5301 0003418  11.3651 345.8352 15.62724375  9660",
      "drg": 22.893,
      "inc": 53.052,
      "ran": 201.5301,
      "ecc": 0.0003418,
      "aop": 11.3651,
      "man": 345.8352,
      "mmo": 15.62724375,
      "sma": 6757.92837
   },
   {
      "name": "STARLINK-1986",
      "line1": "1 47582U 21009AL  21092.91668981  .00023420  00000-0  26148-3 0  9995",
      "line2": "2 47582  53.0535 201.5888 0003342   4.4975 331.7291 15.62690280  9668",
      "drg": 26.148,
      "inc": 53.0535,
      "ran": 201.5888,
      "ecc": 0.0003342,
      "aop": 4.4975,
      "man": 331.7291,
      "mmo": 15.6269028,
      "sma": 6758.02666
   },
   {
      "name": "STARLINK-1987",
      "line1": "1 47583U 21009AM  21092.91668981 -.00001018  00000-0 -52704-5 0  9996",
      "line2": "2 47583  53.0518 201.5690 0003127  11.5295 328.5031 15.62698081  1762",
      "drg": -0.52704,
      "inc": 53.0518,
      "ran": 201.569,
      "ecc": 0.0003127,
      "aop": 11.5295,
      "man": 328.5031,
      "mmo": 15.62698081,
      "sma": 6758.00417
   },
   {
      "name": "STARLINK-1988",
      "line1": "1 47584U 21009AN  21092.91668981  .00018001  00000-0  20227-3 0  9998",
      "line2": "2 47584  53.0519 201.5389 0003747   7.6337 347.6748 15.62714561  9666",
      "drg": 20.227,
      "inc": 53.0519,
      "ran": 201.5389,
      "ecc": 0.0003747,
      "aop": 7.6337,
      "man": 347.6748,
      "mmo": 15.62714561,
      "sma": 6757.95666
   },
   {
      "name": "STARLINK-1989",
      "line1": "1 47585U 21009AP  21092.91668981 -.00080549  00000-0 -88221-3 0  9995",
      "line2": "2 47585  53.0519 201.5919 0003228   9.3283 326.2622 15.62756442  9667",
      "drg": -88.221,
      "inc": 53.0519,
      "ran": 201.5919,
      "ecc": 0.0003228,
      "aop": 9.3283,
      "man": 326.2622,
      "mmo": 15.62756442,
      "sma": 6757.83592
   },
   {
      "name": "STARLINK-1990",
      "line1": "1 47586U 21009AQ  21092.91668981 -.00020606  00000-0 -13682-2 0  9992",
      "line2": "2 47586  53.0528 210.0807 0001384  68.6226  60.2392 15.06406914  9556",
      "drg": -136.82,
      "inc": 53.0528,
      "ran": 210.0807,
      "ecc": 0.0001384,
      "aop": 68.6226,
      "man": 60.2392,
      "mmo": 15.06406914,
      "sma": 6925.32737
   },
   {
      "name": "STARLINK-1991",
      "line1": "1 47587U 21009AR  21092.91668981  .00016606  00000-0  18732-3 0  9998",
      "line2": "2 47587  53.0517 201.5488 0003293   9.1535 339.7960 15.62683142  1761",
      "drg": 18.732,
      "inc": 53.0517,
      "ran": 201.5488,
      "ecc": 0.0003293,
      "aop": 9.1535,
      "man": 339.796,
      "mmo": 15.62683142,
      "sma": 6758.04724
   },
   {
      "name": "STARLINK-1993",
      "line1": "1 47588U 21009AS  21092.91668981  .00018336  00000-0  20596-3 0  9992",
      "line2": "2 47588  53.0516 201.5662 0003958   2.2613 338.3889 15.62708136  9667",
      "drg": 20.596,
      "inc": 53.0516,
      "ran": 201.5662,
      "ecc": 0.0003958,
      "aop": 2.2613,
      "man": 338.3889,
      "mmo": 15.62708136,
      "sma": 6757.97518
   },
   {
      "name": "STARLINK-1994",
      "line1": "1 47589U 21009AT  21092.91668981  .00021604  00000-0  24168-3 0  9994",
      "line2": "2 47589  53.0535 201.5881 0003707   4.4553 333.0348 15.62692588  9666",
      "drg": 24.168,
      "inc": 53.0535,
      "ran": 201.5881,
      "ecc": 0.0003707,
      "aop": 4.4553,
      "man": 333.0348,
      "mmo": 15.62692588,
      "sma": 6758.02001
   },
   {
      "name": "STARLINK-1995",
      "line1": "1 47590U 21009AU  21092.91668981 -.00020595  00000-0 -13680-2 0  9992",
      "line2": "2 47590  53.0531 210.0801 0001455  69.4304  79.4459 15.06391453  9551",
      "drg": -136.8,
      "inc": 53.0531,
      "ran": 210.0801,
      "ecc": 0.0001455,
      "aop": 69.4304,
      "man": 79.4459,
      "mmo": 15.06391453,
      "sma": 6925.37475
   },
   {
      "name": "STARLINK-1996",
      "line1": "1 47591U 21009AV  21092.91668981  .00023380  00000-0  26082-3 0  9997",
      "line2": "2 47591  53.0517 201.5737 0003499   8.5035 329.6265 15.62712048  9660",
      "drg": 26.082,
      "inc": 53.0517,
      "ran": 201.5737,
      "ecc": 0.0003499,
      "aop": 8.5035,
      "man": 329.6265,
      "mmo": 15.62712048,
      "sma": 6757.9639
   },
   {
      "name": "STARLINK-1997",
      "line1": "1 47592U 21009AW  21092.91668981 -.00025594  00000-0 -17067-2 0  9991",
      "line2": "2 47592  53.0516 210.0783 0000769  82.2085 226.8138 15.06374729  1754",
      "drg": -170.67,
      "inc": 53.0516,
      "ran": 210.0783,
      "ecc": 7.69e-05,
      "aop": 82.2085,
      "man": 226.8138,
      "mmo": 15.06374729,
      "sma": 6925.42601
   },
   {
      "name": "STARLINK-1998",
      "line1": "1 47593U 21009AX  21092.91668981 -.00021101  00000-0 -14017-2 0  9994",
      "line2": "2 47593  53.0554 210.0835 0001381  67.7296  41.1266 15.06404849  1755",
      "drg": -140.17,
      "inc": 53.0554,
      "ran": 210.0835,
      "ecc": 0.0001381,
      "aop": 67.7296,
      "man": 41.1266,
      "mmo": 15.06404849,
      "sma": 6925.3337
   },
   {
      "name": "STARLINK-1999",
      "line1": "1 47594U 21009AY  21092.91668981 -.00038092  00000-0 -25504-2 0  9995",
      "line2": "2 47594  53.0515 210.0796 0001058  87.8792 200.9719 15.06424495  9546",
      "drg": -255.04,
      "inc": 53.0515,
      "ran": 210.0796,
      "ecc": 0.0001058,
      "aop": 87.8792,
      "man": 200.9719,
      "mmo": 15.06424495,
      "sma": 6925.27349
   },
   {
      "name": "STARLINK-2000",
      "line1": "1 47595U 21009AZ  21092.91668981 -.00074691  00000-0 -50443-2 0  9991",
      "line2": "2 47595  53.0521 210.0796 0001017  74.0837 294.7806 15.06429767  9542",
      "drg": -504.43,
      "inc": 53.0521,
      "ran": 210.0796,
      "ecc": 0.0001017,
      "aop": 74.0837,
      "man": 294.7806,
      "mmo": 15.06429767,
      "sma": 6925.25733
   },
   {
      "name": "STARLINK-2001",
      "line1": "1 47596U 21009BA  21092.91668981 -.00041661  00000-0 -27926-2 0  9993",
      "line2": "2 47596  53.0530 210.0809 0000820  57.6317 291.2283 15.06424298  9544",
      "drg": -279.26,
      "inc": 53.053,
      "ran": 210.0809,
      "ecc": 8.2e-05,
      "aop": 57.6317,
      "man": 291.2283,
      "mmo": 15.06424298,
      "sma": 6925.27409
   },
   {
      "name": "STARLINK-2002",
      "line1": "1 47597U 21009BB  21092.91668981 -.00024891  00000-0 -16574-2 0  9997",
      "line2": "2 47597  53.0530 210.0814 0000905  81.9289 306.9265 15.06412972  9554",
      "drg": -165.74,
      "inc": 53.053,
      "ran": 210.0814,
      "ecc": 9.05e-05,
      "aop": 81.9289,
      "man": 306.9265,
      "mmo": 15.06412972,
      "sma": 6925.3088
   },
   {
      "name": "STARLINK-2003",
      "line1": "1 47598U 21009BC  21092.91668981  .00021814  00000-0  24386-3 0  9999",
      "line2": "2 47598  53.0521 201.5476 0003493   8.0338 346.6260 15.62704170  9668",
      "drg": 24.386,
      "inc": 53.0521,
      "ran": 201.5476,
      "ecc": 0.0003493,
      "aop": 8.0338,
      "man": 346.626,
      "mmo": 15.6270417,
      "sma": 6757.98662
   },
   {
      "name": "STARLINK-2004",
      "line1": "1 47599U 21009BD  21092.91668981  .00021822  00000-0  24377-3 0  9999",
      "line2": "2 47599  53.0518 201.5273 0003475  16.4760 341.3534 15.62723234  9660",
      "drg": 24.377,
      "inc": 53.0518,
      "ran": 201.5273,
      "ecc": 0.0003475,
      "aop": 16.476,
      "man": 341.3534,
      "mmo": 15.62723234,
      "sma": 6757.93165
   },
   {
      "name": "STARLINK-2005",
      "line1": "1 47600U 21009BE  21092.91668981  .00022420  00000-0  25067-3 0  9994",
      "line2": "2 47600  53.0518 201.5352 0003070  13.2008 343.3649 15.62682839  1769",
      "drg": 25.067,
      "inc": 53.0518,
      "ran": 201.5352,
      "ecc": 0.000307,
      "aop": 13.2008,
      "man": 343.3649,
      "mmo": 15.62682839,
      "sma": 6758.04811
   },
   {
      "name": "STARLINK-2006",
      "line1": "1 47601U 21009BF  21092.91668981  .00023708  00000-0  26427-3 0  9996",
      "line2": "2 47601  53.0518 201.5329 0003031  10.2427 345.6858 15.62724065  9665",
      "drg": 26.427,
      "inc": 53.0518,
      "ran": 201.5329,
      "ecc": 0.0003031,
      "aop": 10.2427,
      "man": 345.6858,
      "mmo": 15.62724065,
      "sma": 6757.92926
   },
   {
      "name": "STARLINK-2007",
      "line1": "1 47602U 21009BG  21092.91668981  .00022353  00000-0  24986-3 0  9990",
      "line2": "2 47602  53.0516 201.5528 0003973   6.2977 345.8279 15.62688359  1762",
      "drg": 24.986,
      "inc": 53.0516,
      "ran": 201.5528,
      "ecc": 0.0003973,
      "aop": 6.2977,
      "man": 345.8279,
      "mmo": 15.62688359,
      "sma": 6758.0322
   },
   {
      "name": "STARLINK-2008",
      "line1": "1 47603U 21009BH  21092.91668981 -.00065907  00000-0 -44431-2 0  9991",
      "line2": "2 47603  53.0475 210.1386 0001132  76.7084 112.1578 15.06431667  9548",
      "drg": -444.31,
      "inc": 53.0475,
      "ran": 210.1386,
      "ecc": 0.0001132,
      "aop": 76.7084,
      "man": 112.1578,
      "mmo": 15.06431667,
      "sma": 6925.25151
   },
   {
      "name": "STARLINK-2021",
      "line1": "1 47604U 21009BJ  21092.91668981  .00022235  00000-0  24817-3 0  9994",
      "line2": "2 47604  53.0517 201.5526 0003611  10.8209 340.0219 15.62731937  9660",
      "drg": 24.817,
      "inc": 53.0517,
      "ran": 201.5526,
      "ecc": 0.0003611,
      "aop": 10.8209,
      "man": 340.0219,
      "mmo": 15.62731937,
      "sma": 6757.90656
   }
]